{
  "type": "FeatureCollection",
  "features": [
    {
      "type": "Feature",
      "properties": {
        "norad_id": 40115,
        "name": "WORLDVIEW-3 (WV-3)",
        "group": "resource",
        "lat": 42.64415584601862,
        "lon": -115.40527623490217,
        "alt_km": 606.6303143745563,
        "timestamp": "2025-12-10T23:33:12.483908+00:00",
        "meta_object_name": "WORLDVIEW-3 (WV-3)",
        "meta_object_id": "2014-048A",
        "meta_epoch": "2025-12-10T14:51:23.693472",
        "meta_mean_motion": 14.85503379,
        "meta_eccentricity": 0.00045883,
        "meta_inclination": 97.8618,
        "meta_ra_of_asc_node": 56.9259,
        "meta_arg_of_pericenter": 191.867,
        "meta_mean_anomaly": 168.2438,
        "meta_ephemeris_type": 0,
        "meta_classification_type": "U",
        "meta_norad_cat_id": 40115,
        "meta_element_set_no": 999,
        "meta_rev_at_epoch": 61392,
        "meta_bstar": 0.00022039261,
        "meta_mean_motion_dot": 1.849e-05,
        "meta_mean_motion_ddot": 0,
        "tle_line1": "1 40115U 14048A   25344.61902423  .00001849  00000+0  22039-3 0  9993",
        "tle_line2": "2 40115  97.8618  56.9259 0004588 191.8670 168.2438 14.85503379613923"
      },
      "geometry": {
        "type": "Point",
        "coordinates": [
          -115.40527623490217,
          42.64415584601862
        ]
      }
    },
    {
      "type": "Feature",
      "properties": {
        "norad_id": 40118,
        "name": "GAOFEN-2",
        "group": "resource",
        "lat": -14.873855751047772,
        "lon": 46.297279643382424,
        "alt_km": 636.1429696125051,
        "timestamp": "2025-12-10T23:33:12.483918+00:00",
        "meta_object_name": "GAOFEN-2",
        "meta_object_id": "2014-049A",
        "meta_epoch": "2025-12-10T15:30:41.374080",
        "meta_mean_motion": 14.80601598,
        "meta_eccentricity": 0.00084678,
        "meta_inclination": 98.0382,
        "meta_ra_of_asc_node": 43.8107,
        "meta_arg_of_pericenter": 118.4415,
        "meta_mean_anomaly": 241.7651,
        "meta_ephemeris_type": 0,
        "meta_classification_type": "U",
        "meta_norad_cat_id": 40118,
        "meta_element_set_no": 999,
        "meta_rev_at_epoch": 61133,
        "meta_bstar": 0.00013939119,
        "meta_mean_motion_dot": 1.016e-05,
        "meta_mean_motion_ddot": 0,
        "tle_line1": "1 40118U 14049A   25344.64631220  .00001016  00000+0  13939-3 0  9999",
        "tle_line2": "2 40118  98.0382  43.8107 0008467 118.4415 241.7651 14.80601598611330"
      },
      "geometry": {
        "type": "Point",
        "coordinates": [
          46.297279643382424,
          -14.873855751047772
        ]
      }
    },
    {
      "type": "Feature",
      "properties": {
        "norad_id": 40143,
        "name": "YAOGAN-21",
        "group": "resource",
        "lat": 36.18285393331395,
        "lon": 23.082969513497847,
        "alt_km": 485.67404177088974,
        "timestamp": "2025-12-10T23:33:12.483927+00:00",
        "meta_object_name": "YAOGAN-21",
        "meta_object_id": "2014-053A",
        "meta_epoch": "2025-12-10T13:56:12.916320",
        "meta_mean_motion": 15.23643616,
        "meta_eccentricity": 0.00099394,
        "meta_inclination": 97.1754,
        "meta_ra_of_asc_node": 27.9868,
        "meta_arg_of_pericenter": 48.1346,
        "meta_mean_anomaly": 312.0739,
        "meta_ephemeris_type": 0,
        "meta_classification_type": "U",
        "meta_norad_cat_id": 40143,
        "meta_element_set_no": 999,
        "meta_rev_at_epoch": 62621,
        "meta_bstar": 0.00053918563,
        "meta_mean_motion_dot": 0.00012883,
        "meta_mean_motion_ddot": 0,
        "tle_line1": "1 40143U 14053A   25344.58070505  .00012883  00000+0  53919-3 0  9994",
        "tle_line2": "2 40143  97.1754  27.9868 0009939  48.1346 312.0739 15.23643616626212"
      },
      "geometry": {
        "type": "Point",
        "coordinates": [
          23.082969513497847,
          36.18285393331395
        ]
      }
    },
    {
      "type": "Feature",
      "properties": {
        "norad_id": 40275,
        "name": "YAOGAN-22",
        "group": "resource",
        "lat": 70.07720370970415,
        "lon": -20.041838116829005,
        "alt_km": 1198.6982159832096,
        "timestamp": "2025-12-10T23:33:12.483936+00:00",
        "meta_object_name": "YAOGAN-22",
        "meta_object_id": "2014-063A",
        "meta_epoch": "2025-12-10T15:42:39.022848",
        "meta_mean_motion": 13.15522571,
        "meta_eccentricity": 0.00059417,
        "meta_inclination": 100.742,
        "meta_ra_of_asc_node": 128.0447,
        "meta_arg_of_pericenter": 253.3649,
        "meta_mean_anomaly": 106.6811,
        "meta_ephemeris_type": 0,
        "meta_classification_type": "U",
        "meta_norad_cat_id": 40275,
        "meta_element_set_no": 999,
        "meta_rev_at_epoch": 53502,
        "meta_bstar": 9.7845515e-05,
        "meta_mean_motion_dot": -1e-07,
        "meta_mean_motion_ddot": 0,
        "tle_line1": "1 40275U 14063A   25344.65461832 -.00000010  00000+0  97846-4 0  9994",
        "tle_line2": "2 40275 100.7420 128.0447 0005941 253.3649 106.6811 13.15522571535021"
      },
      "geometry": {
        "type": "Point",
        "coordinates": [
          -20.041838116829005,
          70.07720370970415
        ]
      }
    },
    {
      "type": "Feature",
      "properties": {
        "norad_id": 40298,
        "name": "ASNARO",
        "group": "resource",
        "lat": 67.83716596785074,
        "lon": -100.51643025515969,
        "alt_km": 497.3510165244379,
        "timestamp": "2025-12-10T23:33:12.483945+00:00",
        "meta_object_name": "ASNARO",
        "meta_object_id": "2014-070A",
        "meta_epoch": "2025-12-10T15:09:51.939360",
        "meta_mean_motion": 15.19424864,
        "meta_eccentricity": 0.00054291,
        "meta_inclination": 97.3644,
        "meta_ra_of_asc_node": 60.6299,
        "meta_arg_of_pericenter": 127.1777,
        "meta_mean_anomaly": 232.9955,
        "meta_ephemeris_type": 0,
        "meta_classification_type": "U",
        "meta_norad_cat_id": 40298,
        "meta_element_set_no": 999,
        "meta_rev_at_epoch": 61537,
        "meta_bstar": 0.00087261173,
        "meta_mean_motion_dot": 0.00018456,
        "meta_mean_motion_ddot": 0,
        "tle_line1": "1 40298U 14070A   25344.63185115  .00018456  00000+0  87261-3 0  9993",
        "tle_line2": "2 40298  97.3644  60.6299 0005429 127.1777 232.9955 15.19424864615373"
      },
      "geometry": {
        "type": "Point",
        "coordinates": [
          -100.51643025515969,
          67.83716596785074
        ]
      }
    },
    {
      "type": "Feature",
      "properties": {
        "norad_id": 40310,
        "name": "YAOGAN-24",
        "group": "resource",
        "lat": -3.2958232690079905,
        "lon": 116.5364148579534,
        "alt_km": 653.413597346369,
        "timestamp": "2025-12-10T23:33:12.483955+00:00",
        "meta_object_name": "YAOGAN-24",
        "meta_object_id": "2014-072A",
        "meta_epoch": "2025-12-10T15:26:04.127712",
        "meta_mean_motion": 14.76169116,
        "meta_eccentricity": 0.00146208,
        "meta_inclination": 98.1224,
        "meta_ra_of_asc_node": 115.7252,
        "meta_arg_of_pericenter": 144.2705,
        "meta_mean_anomaly": 215.9485,
        "meta_ephemeris_type": 0,
        "meta_classification_type": "U",
        "meta_norad_cat_id": 40310,
        "meta_element_set_no": 999,
        "meta_rev_at_epoch": 59590,
        "meta_bstar": 0.00019603795,
        "meta_mean_motion_dot": 1.304e-05,
        "meta_mean_motion_ddot": 0,
        "tle_line1": "1 40310U 14072A   25344.64310333  .00001304  00000+0  19604-3 0  9993",
        "tle_line2": "2 40310  98.1224 115.7252 0014620 144.2705 215.9485 14.76169116595909"
      },
      "geometry": {
        "type": "Point",
        "coordinates": [
          116.5364148579534,
          -3.2958232690079905
        ]
      }
    },
    {
      "type": "Feature",
      "properties": {
        "norad_id": 40336,
        "name": "CBERS 4",
        "group": "resource",
        "lat": -5.688656804225589,
        "lon": 43.894371794944426,
        "alt_km": 777.542514619231,
        "timestamp": "2025-12-10T23:33:12.483964+00:00",
        "meta_object_name": "CBERS 4",
        "meta_object_id": "2014-079A",
        "meta_epoch": "2025-12-10T15:12:57.582720",
        "meta_mean_motion": 14.35517132,
        "meta_eccentricity": 0.00016024,
        "meta_inclination": 98.3306,
        "meta_ra_of_asc_node": 42.7226,
        "meta_arg_of_pericenter": 113.3101,
        "meta_mean_anomaly": 246.8254,
        "meta_ephemeris_type": 0,
        "meta_classification_type": "U",
        "meta_norad_cat_id": 40336,
        "meta_element_set_no": 999,
        "meta_rev_at_epoch": 57690,
        "meta_bstar": 0.00015722071,
        "meta_mean_motion_dot": 4.1e-06,
        "meta_mean_motion_ddot": 0,
        "tle_line1": "1 40336U 14079A   25344.63399980  .00000410  00000+0  15722-3 0  9996",
        "tle_line2": "2 40336  98.3306  42.7226 0001602 113.3101 246.8254 14.35517132576909"
      },
      "geometry": {
        "type": "Point",
        "coordinates": [
          43.894371794944426,
          -5.688656804225589
        ]
      }
    }
  ]
}